[{"OBJECT_NAME":"SAUDISAT 1C (SO-50)","OBJECT_ID":"2002-058C","EPOCH":"2026-03-29T04:13:05.551680","MEAN_MOTION":14.82859188,"ECCENTRICITY":0.0075442,"INCLINATION":64.5539,"RA_OF_ASC_NODE":16.5038,"ARG_OF_PERICENTER":277.0481,"MEAN_ANOMALY":82.2049,"EPHEMERIS_TYPE":0,"CLASSIFICATION_TYPE":"U","NORAD_CAT_ID":27607,"ELEMENT_SET_NO":999,"REV_AT_EPOCH":25259,"BSTAR":0.00023847,"MEAN_MOTION_DOT":1.879e-5,"MEAN_MOTION_DDOT":0},{"OBJECT_NAME":"SAUDISAT 2","OBJECT_ID":"2004-025F","EPOCH":"2026-03-28T22:27:40.291200","MEAN_MOTION":14.56631381,"ECCENTRICITY":0.0024666,"INCLINATION":98.5507,"RA_OF_ASC_NODE":85.8502,"ARG_OF_PERICENTER":180.5167,"MEAN_ANOMALY":179.6009,"EPHEMERIS_TYPE":0,"CLASSIFICATION_TYPE":"U","NORAD_CAT_ID":28371,"ELEMENT_SET_NO":999,"REV_AT_EPOCH":15406,"BSTAR":8.918e-5,"MEAN_MOTION_DOT":3.5e-6,"MEAN_MOTION_DDOT":0},{"OBJECT_NAME":"SAUDISAT 3","OBJECT_ID":"2007-012B","EPOCH":"2026-03-28T19:27:34.676928","MEAN_MOTION":14.7137015,"ECCENTRICITY":0.00157948,"INCLINATION":98.1378,"RA_OF_ASC_NODE":38.1981,"ARG_OF_PERICENTER":120.4829,"MEAN_ANOMALY":239.794,"EPHEMERIS_TYPE":0,"CLASSIFICATION_TYPE":"U","NORAD_CAT_ID":31118,"ELEMENT_SET_NO":999,"REV_AT_EPOCH":1592,"BSTAR":6.9109748e-5,"MEAN_MOTION_DOT":3.77e-6,"MEAN_MOTION_DDOT":0},{"OBJECT_NAME":"PISAT","OBJECT_ID":"2016-059B","EPOCH":"2026-03-29T05:46:30.159840","MEAN_MOTION":14.68823332,"ECCENTRICITY":0.0030579,"INCLINATION":97.8193,"RA_OF_ASC_NODE":92.1363,"ARG_OF_PERICENTER":100.4738,"MEAN_ANOMALY":259.9916,"EPHEMERIS_TYPE":0,"CLASSIFICATION_TYPE":"U","NORAD_CAT_ID":41784,"ELEMENT_SET_NO":999,"REV_AT_EPOCH":50800,"BSTAR":0.0002564,"MEAN_MOTION_DOT":1.46e-5,"MEAN_MOTION_DDOT":0},{"OBJECT_NAME":"FLYING LAPTOP","OBJECT_ID":"2017-042G","EPOCH":"2026-03-29T04:23:03.560640","MEAN_MOTION":15.00641606,"ECCENTRICITY":0.0020032,"INCLINATION":97.4331,"RA_OF_ASC_NODE":246.9977,"ARG_OF_PERICENTER":35.1632,"MEAN_ANOMALY":325.091,"EPHEMERIS_TYPE":0,"CLASSIFICATION_TYPE":"U","NORAD_CAT_ID":42831,"ELEMENT_SET_NO":999,"REV_AT_EPOCH":47445,"BSTAR":0.00019964,"MEAN_MOTION_DOT":2.478e-5,"MEAN_MOTION_DDOT":0},{"OBJECT_NAME":"SALSAT","OBJECT_ID":"2020-068K","EPOCH":"2026-03-28T23:41:11.718816","MEAN_MOTION":15.28549734,"ECCENTRICITY":0.0008782,"INCLINATION":97.8861,"RA_OF_ASC_NODE":86.2455,"ARG_OF_PERICENTER":214.9729,"MEAN_ANOMALY":145.0934,"EPHEMERIS_TYPE":0,"CLASSIFICATION_TYPE":"U","NORAD_CAT_ID":46495,"ELEMENT_SET_NO":999,"REV_AT_EPOCH":30310,"BSTAR":0.00036891,"MEAN_MOTION_DOT":0.00010179,"MEAN_MOTION_DDOT":0}]
